{
  "norad_id": 48123,
  "name": "STARLINK-2464",
  "history": [
    {
      "epoch": "2026-03-28T08:34:25.376160Z",
      "apogee_km": 476.04412463451536,
      "perigee_km": 474.4211096417848,
      "latitude_deg": 2.1169958812096234e-05,
      "longitude_deg": 111.43563607017046,
      "height_km": 476.0054322771563,
      "semi_major_axis_km": 6853.36961713815,
      "eccentricity": 0.00011841,
      "inclination_deg": 53.1594,
      "raan_deg": 65.8202,
      "arg_perigee_deg": 81.1157,
      "mean_anomaly_deg": 278.9978,
      "mean_motion_rev_day": 15.30194123
    },
    {
      "epoch": "2026-03-29T04:57:06.262272Z",
      "apogee_km": 475.9564023228304,
      "perigee_km": 474.3321746574593,
      "latitude_deg": -1.519644744818706e-06,
      "longitude_deg": 160.98466451482847,
      "height_km": 475.9741674715633,
      "semi_major_axis_km": 6853.281288490145,
      "eccentricity": 0.0001185,
      "inclination_deg": 53.1597,
      "raan_deg": 61.8765,
      "arg_perigee_deg": 85.1759,
      "mean_anomaly_deg": 274.9377,
      "mean_motion_rev_day": 15.30223706
    },
    {
      "epoch": "2026-03-30T04:27:54.266400Z",
      "apogee_km": 476.10617987845944,
      "perigee_km": 474.33938372671037,
      "latitude_deg": -5.6265650752637396e-05,
      "longitude_deg": 162.76824881235254,
      "height_km": 476.2105956193299,
      "semi_major_axis_km": 6853.359781802585,
      "eccentricity": 0.0001289,
      "inclination_deg": 53.1608,
      "raan_deg": 57.3258,
      "arg_perigee_deg": 95.8255,
      "mean_anomaly_deg": 264.2892,
      "mean_motion_rev_day": 15.30197417
    },
    {
      "epoch": "2026-03-30T07:36:00.685440Z",
      "apogee_km": 476.11292961690106,
      "perigee_km": 474.33324906889993,
      "latitude_deg": -8.976589869192335e-06,
      "longitude_deg": 115.00528353925253,
      "height_km": 476.2447084577603,
      "semi_major_axis_km": 6853.3600893429,
      "eccentricity": 0.00012984,
      "inclination_deg": 53.161,
      "raan_deg": 56.7183,
      "arg_perigee_deg": 97.9752,
      "mean_anomaly_deg": 262.1396,
      "mean_motion_rev_day": 15.30197314
    },
    {
      "epoch": "2026-03-31T03:58:41.485152Z",
      "apogee_km": 476.1193389880318,
      "perigee_km": 474.1815034368092,
      "latitude_deg": 3.0207860438431924e-05,
      "longitude_deg": 164.55472023455735,
      "height_km": 476.20727289411224,
      "semi_major_axis_km": 6853.28742121242,
      "eccentricity": 0.00014138,
      "inclination_deg": 53.1624,
      "raan_deg": 52.7746,
      "arg_perigee_deg": 99.4264,
      "mean_anomaly_deg": 260.6897,
      "mean_motion_rev_day": 15.30221652
    },
    {
      "epoch": "2026-04-01T14:27:53.702496Z",
      "apogee_km": 476.14321993083195,
      "perigee_km": 474.44356919298025,
      "latitude_deg": -2.1051968185506526e-06,
      "longitude_deg": -0.8351270763891551,
      "height_km": 475.9976794494924,
      "semi_major_axis_km": 6853.430394561906,
      "eccentricity": 0.000124,
      "inclination_deg": 53.1624,
      "raan_deg": 46.102,
      "arg_perigee_deg": 76.7952,
      "mean_anomaly_deg": 283.3187,
      "mean_motion_rev_day": 15.30173768
    },
    {
      "epoch": "2026-04-02T13:58:41.857824Z",
      "apogee_km": 476.1660977080155,
      "perigee_km": 474.2918391829653,
      "latitude_deg": -5.2127571459569644e-05,
      "longitude_deg": 0.9485292962638364,
      "height_km": 475.92358597522235,
      "semi_major_axis_km": 6853.36596844549,
      "eccentricity": 0.00013674,
      "inclination_deg": 53.1627,
      "raan_deg": 41.552,
      "arg_perigee_deg": 77.4476,
      "mean_anomaly_deg": 282.6677,
      "mean_motion_rev_day": 15.30195345
    },
    {
      "epoch": "2026-04-03T13:29:29.607936Z",
      "apogee_km": 476.25769850356664,
      "perigee_km": 474.1550927497874,
      "latitude_deg": -1.588928825845849e-05,
      "longitude_deg": 2.7329423058338307,
      "height_km": 475.93498726370336,
      "semi_major_axis_km": 6853.343395626676,
      "eccentricity": 0.0001534,
      "inclination_deg": 53.1627,
      "raan_deg": 37.001,
      "arg_perigee_deg": 80.725,
      "mean_anomaly_deg": 279.3924,
      "mean_motion_rev_day": 15.30202905
    },
    {
      "epoch": "2026-04-04T13:00:17.159328Z",
      "apogee_km": 476.33357010357486,
      "perigee_km": 474.05141138315867,
      "latitude_deg": 4.968111344167989e-05,
      "longitude_deg": 4.516006635052582,
      "height_km": 476.14274333392336,
      "semi_major_axis_km": 6853.3294907433665,
      "eccentricity": 0.0001665,
      "inclination_deg": 53.1639,
      "raan_deg": 32.4478,
      "arg_perigee_deg": 92.6277,
      "mean_anomaly_deg": 267.4915,
      "mean_motion_rev_day": 15.30207562
    },
    {
      "epoch": "2026-04-05T04:40:48.010368Z",
      "apogee_km": 476.19255631183023,
      "perigee_km": 474.0703731990334,
      "latitude_deg": -1.4911631642551855e-05,
      "longitude_deg": 125.71095264871394,
      "height_km": 476.04467441551753,
      "semi_major_axis_km": 6853.2684647554315,
      "eccentricity": 0.00015483,
      "inclination_deg": 53.1634,
      "raan_deg": 29.4151,
      "arg_perigee_deg": 90.8177,
      "mean_anomaly_deg": 269.3001,
      "mean_motion_rev_day": 15.30228001
    },
    {
      "epoch": "2026-04-06T04:11:36.468096Z",
      "apogee_km": 475.8779132835416,
      "perigee_km": 474.6130530124519,
      "latitude_deg": 1.987356708452821e-05,
      "longitude_deg": 127.49390597908098,
      "height_km": 475.8443791718082,
      "semi_major_axis_km": 6853.382483147996,
      "eccentricity": 9.228e-05,
      "inclination_deg": 53.1614,
      "raan_deg": 24.8656,
      "arg_perigee_deg": 61.6883,
      "mean_anomaly_deg": 298.4211,
      "mean_motion_rev_day": 15.30189814
    },
    {
      "epoch": "2026-04-07T00:34:18.583680Z",
      "apogee_km": 476.01543155063155,
      "perigee_km": 474.47616177450163,
      "latitude_deg": 1.390686427494233e-05,
      "longitude_deg": 177.03660808551285,
      "height_km": 475.94143940283305,
      "semi_major_axis_km": 6853.382796662566,
      "eccentricity": 0.0001123,
      "inclination_deg": 53.1625,
      "raan_deg": 20.9207,
      "arg_perigee_deg": 74.7103,
      "mean_anomaly_deg": 285.4022,
      "mean_motion_rev_day": 15.30189709
    },
    {
      "epoch": "2026-04-08T11:03:29.252736Z",
      "apogee_km": 476.1070267688974,
      "perigee_km": 474.34461598575217,
      "latitude_deg": 1.9280921144429534e-05,
      "longitude_deg": 11.652751513734797,
      "height_km": 475.96920762305444,
      "semi_major_axis_km": 6853.3628213773245,
      "eccentricity": 0.00012858,
      "inclination_deg": 53.1629,
      "raan_deg": 14.2476,
      "arg_perigee_deg": 79.8689,
      "mean_anomaly_deg": 280.2457,
      "mean_motion_rev_day": 15.30196399
    },
    {
      "epoch": "2026-04-09T10:34:17.134176Z",
      "apogee_km": 476.45011161143975,
      "perigee_km": 474.0064756823367,
      "latitude_deg": 2.7802535492346143e-05,
      "longitude_deg": 13.43729198176739,
      "height_km": 476.05262003413316,
      "semi_major_axis_km": 6853.365293646888,
      "eccentricity": 0.00017828,
      "inclination_deg": 53.1623,
      "raan_deg": 9.6973,
      "arg_perigee_deg": 86.5618,
      "mean_anomaly_deg": 273.5587,
      "mean_motion_rev_day": 15.30195571
    },
    {
      "epoch": "2026-04-10T03:48:52.371072Z",
      "apogee_km": 476.21075314774134,
      "perigee_km": 474.267409826075,
      "latitude_deg": 6.430339701341697e-05,
      "longitude_deg": 110.7461469373107,
      "height_km": 476.1304746220813,
      "semi_major_axis_km": 6853.376081486907,
      "eccentricity": 0.00014178,
      "inclination_deg": 53.1617,
      "raan_deg": 6.3611,
      "arg_perigee_deg": 89.608,
      "mean_anomaly_deg": 270.5084,
      "mean_motion_rev_day": 15.30191958
    },
    {
      "epoch": "2026-04-11T20:34:15.280320Z",
      "apogee_km": 476.32085117250335,
      "perigee_km": 474.116811937075,
      "latitude_deg": 7.843459936728895e-06,
      "longitude_deg": -150.16205804562685,
      "height_km": 476.2840260919083,
      "semi_major_axis_km": 6853.355831554789,
      "eccentricity": 0.0001608,
      "inclination_deg": 53.1611,
      "raan_deg": 358.4722,
      "arg_perigee_deg": 98.7399,
      "mean_anomaly_deg": 261.3784,
      "mean_motion_rev_day": 15.3019874
    },
    {
      "epoch": "2026-04-13T02:21:15.941952Z",
      "apogee_km": 476.16186526215006,
      "perigee_km": 474.2758217340206,
      "latitude_deg": 3.218153112509838e-05,
      "longitude_deg": 116.097837026755,
      "height_km": 476.3722130034466,
      "semi_major_axis_km": 6853.355843498085,
      "eccentricity": 0.0001376,
      "inclination_deg": 53.1615,
      "raan_deg": 352.708,
      "arg_perigee_deg": 105.7023,
      "mean_anomaly_deg": 254.413,
      "mean_motion_rev_day": 15.30198736
    },
    {
      "epoch": "2026-04-14T20:40:42.220992Z",
      "apogee_km": 476.00014387406463,
      "perigee_km": 474.4512839007248,
      "latitude_deg": -7.5086954208956515e-06,
      "longitude_deg": -168.69057024743083,
      "height_km": 475.985087334302,
      "semi_major_axis_km": 6853.362713887394,
      "eccentricity": 0.000113,
      "inclination_deg": 53.1623,
      "raan_deg": 344.5173,
      "arg_perigee_deg": 79.6476,
      "mean_anomaly_deg": 280.4652,
      "mean_motion_rev_day": 15.30196435
    },
    {
      "epoch": "2026-04-15T09:13:07.570560Z",
      "apogee_km": 476.0195358980609,
      "perigee_km": 474.4098206558683,
      "latitude_deg": 6.291254800853574e-05,
      "longitude_deg": 0.26214509585112183,
      "height_km": 475.97231339595993,
      "semi_major_axis_km": 6853.351678276965,
      "eccentricity": 0.00011744,
      "inclination_deg": 53.1628,
      "raan_deg": 342.0906,
      "arg_perigee_deg": 79.9185,
      "mean_anomaly_deg": 280.1949,
      "mean_motion_rev_day": 15.30200131
    }
  ]
}